IRIDIUM 112             
1 41925U 17003J   25252.24548963  .00000178  00000+0  56673-4 0  9995
2 41925  86.4002 205.6423 0002152  85.9056 274.2386 14.34217488453004
IRIDIUM 111             
1 41926U 17003K   25252.23280451  .00000152  00000+0  47294-4 0  9991
2 41926  86.4005 205.7119 0002341  87.8449 272.3015 14.34218149452987
IRIDIUM 113             
1 42803U 17039A   25252.14299900  .00000020  00000+0  16175-6 0  9994
2 42803  86.3911  79.6499 0001923  89.4782 270.6634 14.34217684430908
IRIDIUM 123             
1 42804U 17039B   25252.11471132  .00000240  00000+0  78539-4 0  9995
2 42804  86.3939 111.1623 0002353  92.3270 267.8196 14.34218041429663
IRIDIUM 120             
1 42805U 17039C   25252.06688575 -.00000035  00000+0 -19539-4 0  9990
2 42805  86.3899  79.5004 0002323  86.4717 273.6744 14.34216664430885
IRIDIUM 115             
1 42806U 17039D   25251.98201879  .00000097  00000+0  22910-4 0  9992
2 42806  86.4437  79.6263 0002768  98.1390 262.0126 14.43282567433708
IRIDIUM 118             
1 42807U 17039E   25252.14642264  .00000131  00000+0  39638-4 0  9993
2 42807  86.3937 111.1482 0001897  87.7518 272.3895 14.34217302429668
IRIDIUM 117             
1 42808U 17039F   25252.16546333  .00000258  00000+0  85213-4 0  9996
2 42808  86.3937 111.1007 0002226  92.2620 267.8830 14.34221003429698
